[{"OBJECT_NAME":"IRIDIUM 33 DEB","OBJECT_ID":"1997-051QS","EPOCH":"2026-03-05T06:44:55.151232","MEAN_MOTION":14.40546839,"ECCENTRICITY":0.01306628,"INCLINATION":86.3921,"RA_OF_ASC_NODE":182.5947,"ARG_OF_PERICENTER":345.6943,"MEAN_ANOMALY":14.0568,"EPHEMERIS_TYPE":0,"CLASSIFICATION_TYPE":"U","NORAD_CAT_ID":35620,"ELEMENT_SET_NO":999,"REV_AT_EPOCH":61153,"BSTAR":0.0028736236,"MEAN_MOTION_DOT":0.00010149,"MEAN_MOTION_DDOT":0},{"OBJECT_NAME":"IRIDIUM 33 DEB","OBJECT_ID":"1997-051QU","EPOCH":"2026-03-04T21:55:10.811712","MEAN_MOTION":15.13726699,"ECCENTRICITY":0.00064935,"INCLINATION":86.1935,"RA_OF_ASC_NODE":222.7645,"ARG_OF_PERICENTER":318.2248,"MEAN_ANOMALY":194.2078,"EPHEMERIS_TYPE":0,"CLASSIFICATION_TYPE":"U","NORAD_CAT_ID":35622,"ELEMENT_SET_NO":999,"REV_AT_EPOCH":88599,"BSTAR":0.0026802848,"MEAN_MOTION_DOT":0.0004857,"MEAN_MOTION_DDOT":0},{"OBJECT_NAME":"IRIDIUM 33 DEB","OBJECT_ID":"1997-051RA","EPOCH":"2026-03-05T00:51:33.765408","MEAN_MOTION":14.6914966,"ECCENTRICITY":0.00140991,"INCLINATION":86.3601,"RA_OF_ASC_NODE":332.3415,"ARG_OF_PERICENTER":52.076,"MEAN_ANOMALY":308.1727,"EPHEMERIS_TYPE":0,"CLASSIFICATION_TYPE":"U","NORAD_CAT_ID":35628,"ELEMENT_SET_NO":999,"REV_AT_EPOCH":87654,"BSTAR":0.0016166558,"MEAN_MOTION_DOT":9.548e-5,"MEAN_MOTION_DDOT":0},{"OBJECT_NAME":"IRIDIUM 33 DEB","OBJECT_ID":"1997-051RD","EPOCH":"2026-03-05T05:38:48.901344","MEAN_MOTION":14.47619055,"ECCENTRICITY":0.0015579,"INCLINATION":86.372,"RA_OF_ASC_NODE":345.4578,"ARG_OF_PERICENTER":199.7119,"MEAN_ANOMALY":312.3923,"EPHEMERIS_TYPE":0,"CLASSIFICATION_TYPE":"U","NORAD_CAT_ID":35631,"ELEMENT_SET_NO":999,"REV_AT_EPOCH":88390,"BSTAR":0.00049774908,"MEAN_MOTION_DOT":1.855e-5,"MEAN_MOTION_DDOT":0},{"OBJECT_NAME":"IRIDIUM 33 DEB","OBJECT_ID":"1997-051RJ","EPOCH":"2026-03-03T13:37:30.156096","MEAN_MOTION":14.22211774,"ECCENTRICITY":0.0154844,"INCLINATION":86.1052,"RA_OF_ASC_NODE":345.7068,"ARG_OF_PERICENTER":22.2182,"MEAN_ANOMALY":95.9581,"EPHEMERIS_TYPE":0,"CLASSIFICATION_TYPE":"U","NORAD_CAT_ID":35680,"ELEMENT_SET_NO":999,"REV_AT_EPOCH":61849,"BSTAR":0.0042353,"MEAN_MOTION_DOT":0.00010642,"MEAN_MOTION_DDOT":0},{"OBJECT_NAME":"IRIDIUM 33 DEB","OBJECT_ID":"1997-051RX","EPOCH":"2026-03-03T08:58:42.997728","MEAN_MOTION":14.72311041,"ECCENTRICITY":0.00189534,"INCLINATION":86.3256,"RA_OF_ASC_NODE":288.9692,"ARG_OF_PERICENTER":283.3066,"MEAN_ANOMALY":76.6037,"EPHEMERIS_TYPE":0,"CLASSIFICATION_TYPE":"U","NORAD_CAT_ID":35744,"ELEMENT_SET_NO":999,"REV_AT_EPOCH":88517,"BSTAR":0.0010582827,"MEAN_MOTION_DOT":6.731e-5,"MEAN_MOTION_DDOT":0},{"OBJECT_NAME":"IRIDIUM 33 DEB","OBJECT_ID":"1997-051SF","EPOCH":"2026-03-01T09:35:30.295680","MEAN_MOTION":14.85465697,"ECCENTRICITY":0.00091515,"INCLINATION":86.3336,"RA_OF_ASC_NODE":293.7608,"ARG_OF_PERICENTER":244.0916,"MEAN_ANOMALY":115.9366,"EPHEMERIS_TYPE":0,"CLASSIFICATION_TYPE":"U","NORAD_CAT_ID":35797,"ELEMENT_SET_NO":999,"REV_AT_EPOCH":88507,"BSTAR":0.001602649,"MEAN_MOTION_DOT":0.00013868,"MEAN_MOTION_DDOT":0},{"OBJECT_NAME":"IRIDIUM 33 DEB","OBJECT_ID":"1997-051SQ","EPOCH":"2026-03-04T01:29:10.119552","MEAN_MOTION":14.5840662,"ECCENTRICITY":0.00141506,"INCLINATION":86.3464,"RA_OF_ASC_NODE":344.7915,"ARG_OF_PERICENTER":141.1989,"MEAN_ANOMALY":219.0239,"EPHEMERIS_TYPE":0,"CLASSIFICATION_TYPE":"U","NORAD_CAT_ID":35806,"ELEMENT_SET_NO":999,"REV_AT_EPOCH":87509,"BSTAR":0.0015765271,"MEAN_MOTION_DOT":7.337e-5,"MEAN_MOTION_DDOT":0},{"OBJECT_NAME":"IRIDIUM 33 DEB","OBJECT_ID":"1997-051ST","EPOCH":"2026-03-02T09:52:47.724672","MEAN_MOTION":14.77775546,"ECCENTRICITY":0.00119409,"INCLINATION":86.3258,"RA_OF_ASC_NODE":299.0145,"ARG_OF_PERICENTER":341.4382,"MEAN_ANOMALY":18.64,"EPHEMERIS_TYPE":0,"CLASSIFICATION_TYPE":"U","NORAD_CAT_ID":35809,"ELEMENT_SET_NO":999,"REV_AT_EPOCH":87983,"BSTAR":0.0015133331,"MEAN_MOTION_DOT":0.00010902,"MEAN_MOTION_DDOT":0},{"OBJECT_NAME":"IRIDIUM 33 DEB","OBJECT_ID":"1997-051SW","EPOCH":"2026-03-04T20:27:14.660928","MEAN_MOTION":14.4353446,"ECCENTRICITY":0.00153713,"INCLINATION":86.3778,"RA_OF_ASC_NODE":23.7756,"ARG_OF_PERICENTER":264.9228,"MEAN_ANOMALY":95.0218,"EPHEMERIS_TYPE":0,"CLASSIFICATION_TYPE":"U","NORAD_CAT_ID":35846,"ELEMENT_SET_NO":999,"REV_AT_EPOCH":72513,"BSTAR":0.0009421039,"MEAN_MOTION_DOT":3.211e-5,"MEAN_MOTION_DDOT":0},{"OBJECT_NAME":"IRIDIUM 33 DEB","OBJECT_ID":"1997-051SY","EPOCH":"2026-03-05T00:41:02.530464","MEAN_MOTION":14.81095014,"ECCENTRICITY":0.00052917,"INCLINATION":86.3931,"RA_OF_ASC_NODE":339.058,"ARG_OF_PERICENTER":297.2212,"MEAN_ANOMALY":62.847,"EPHEMERIS_TYPE":0,"CLASSIFICATION_TYPE":"U","NORAD_CAT_ID":35848,"ELEMENT_SET_NO":999,"REV_AT_EPOCH":67907,"BSTAR":0.002045193,"MEAN_MOTION_DOT":0.00015922,"MEAN_MOTION_DDOT":0},{"OBJECT_NAME":"IRIDIUM 33 DEB","OBJECT_ID":"1997-051TA","EPOCH":"2026-03-04T22:56:17.582784","MEAN_MOTION":14.81217971,"ECCENTRICITY":0.00076163,"INCLINATION":86.3508,"RA_OF_ASC_NODE":306.7887,"ARG_OF_PERICENTER":284.6052,"MEAN_ANOMALY":75.4325,"EPHEMERIS_TYPE":0,"CLASSIFICATION_TYPE":"U","NORAD_CAT_ID":35850,"ELEMENT_SET_NO":999,"REV_AT_EPOCH":72573,"BSTAR":0.0017234796,"MEAN_MOTION_DOT":0.0001346,"MEAN_MOTION_DDOT":0},{"OBJECT_NAME":"IRIDIUM 33 DEB","OBJECT_ID":"1997-051TY","EPOCH":"2026-03-02T23:06:09.945504","MEAN_MOTION":14.83420299,"ECCENTRICITY":0.0009044,"INCLINATION":86.3433,"RA_OF_ASC_NODE":306.232,"ARG_OF_PERICENTER":286.7667,"MEAN_ANOMALY":73.2563,"EPHEMERIS_TYPE":0,"CLASSIFICATION_TYPE":"U","NORAD_CAT_ID":35915,"ELEMENT_SET_NO":999,"REV_AT_EPOCH":9274,"BSTAR":0.0016465,"MEAN_MOTION_DOT":0.00013559,"MEAN_MOTION_DDOT":0},{"OBJECT_NAME":"IRIDIUM 33 DEB","OBJECT_ID":"1997-051UB","EPOCH":"2026-03-03T05:57:38.172672","MEAN_MOTION":14.52017569,"ECCENTRICITY":0.00244088,"INCLINATION":86.4029,"RA_OF_ASC_NODE":41.2249,"ARG_OF_PERICENTER":266.6249,"MEAN_ANOMALY":156.523,"EPHEMERIS_TYPE":0,"CLASSIFICATION_TYPE":"U","NORAD_CAT_ID":35918,"ELEMENT_SET_NO":999,"REV_AT_EPOCH":86375,"BSTAR":0.0013527442,"MEAN_MOTION_DOT":5.506e-5,"MEAN_MOTION_DDOT":0},{"OBJECT_NAME":"IRIDIUM 33 DEB","OBJECT_ID":"1997-051UN","EPOCH":"2026-03-04T07:19:03.280512","MEAN_MOTION":15.09298145,"ECCENTRICITY":0.0015419,"INCLINATION":86.3396,"RA_OF_ASC_NODE":273.7871,"ARG_OF_PERICENTER":83.8088,"MEAN_ANOMALY":276.4906,"EPHEMERIS_TYPE":0,"CLASSIFICATION_TYPE":"U","NORAD_CAT_ID":35929,"ELEMENT_SET_NO":999,"REV_AT_EPOCH":89007,"BSTAR":0.0037250994,"MEAN_MOTION_DOT":0.00059943,"MEAN_MOTION_DDOT":0},{"OBJECT_NAME":"IRIDIUM 33 DEB","OBJECT_ID":"1997-051US","EPOCH":"2026-03-03T14:35:48.280416","MEAN_MOTION":14.41648644,"ECCENTRICITY":0.00174758,"INCLINATION":86.3457,"RA_OF_ASC_NODE":0.6862,"ARG_OF_PERICENTER":321.9511,"MEAN_ANOMALY":161.1077,"EPHEMERIS_TYPE":0,"CLASSIFICATION_TYPE":"U","NORAD_CAT_ID":36011,"ELEMENT_SET_NO":999,"REV_AT_EPOCH":65705,"BSTAR":0.00067114358,"MEAN_MOTION_DOT":2.208e-5,"MEAN_MOTION_DDOT":0}]
