IRIDIUM 33 DEB          
1 35620U 97051QS  26064.28119388  .00010149  00000+0  28736-2 0  9998
2 35620  86.3921 182.5947 0130662 345.6943  14.0568 14.40546839611539
IRIDIUM 33 DEB          
1 35622U 97051QU  26063.91331958  .00048570  00000+0  26803-2 0  9990
2 35622  86.1935 222.7645 0006493 318.2248 194.2078 15.13726699885999
IRIDIUM 33 DEB          
1 35628U 97051RA  26064.03580747  .00009548  00000+0  16167-2 0  9996
2 35628  86.3601 332.3415 0014099  52.0760 308.1727 14.69149660876548
IRIDIUM 33 DEB          
1 35631U 97051RD  26064.23528821  .00001855  00000+0  49775-3 0  9992
2 35631  86.3720 345.4578 0015579 199.7119 312.3923 14.47619055883909
IRIDIUM 33 DEB          
1 35680U 97051RJ  26062.56771014  .00010642  00000+0  42353-2 0  9992
2 35680  86.1052 345.7068 0154844  22.2182  95.9581 14.22211774618498
IRIDIUM 33 DEB          
1 35744U 97051RX  26062.37410877  .00006731  00000+0  10583-2 0  9993
2 35744  86.3256 288.9692 0018953 283.3066  76.6037 14.72311041885175
IRIDIUM 33 DEB          
1 35797U 97051SF  26060.39965620  .00013868  00000+0  16026-2 0  9999
2 35797  86.3336 293.7608 0009151 244.0916 115.9366 14.85465697885073
IRIDIUM 33 DEB          
1 35806U 97051SQ  26063.06192268  .00007337  00000+0  15765-2 0  9990
2 35806  86.3464 344.7915 0014150 141.1989 219.0239 14.58406620875093
IRIDIUM 33 DEB          
1 35809U 97051ST  26061.41166348  .00010902  00000+0  15133-2 0  9991
2 35809  86.3258 299.0145 0011940 341.4382  18.6400 14.77775546879836
IRIDIUM 33 DEB          
1 35846U 97051SW  26063.85225302  .00003211  00000+0  94210-3 0  9997
2 35846  86.3778  23.7756 0015371 264.9228  95.0218 14.43534460725134
IRIDIUM 33 DEB          
1 35848U 97051SY  26064.02850151  .00015922  00000+0  20452-2 0  9993
2 35848  86.3931 339.0580 0005291 297.2212  62.8470 14.81095014679079
IRIDIUM 33 DEB          
1 35850U 97051TA  26063.95575906  .00013460  00000+0  17235-2 0  9999
2 35850  86.3508 306.7887 0007616 284.6052  75.4325 14.81217971725730
IRIDIUM 33 DEB          
1 35915U 97051TY  26061.96261511  .00013559  00000+0  16465-2 0  9997
2 35915  86.3433 306.2320 0009044 286.7667  73.2563 14.83420299 92747
IRIDIUM 33 DEB          
1 35918U 97051UB  26062.24835848  .00005506  00000+0  13527-2 0  9991
2 35918  86.4029  41.2249 0024408 266.6249 156.5230 14.52017569863753
IRIDIUM 33 DEB          
1 35929U 97051UN  26063.30489908  .00059943  00000+0  37251-2 0  9997
2 35929  86.3396 273.7871 0015419  83.8088 276.4906 15.09298145890077
IRIDIUM 33 DEB          
1 36011U 97051US  26062.60819769  .00002208  00000+0  67114-3 0  9998
2 36011  86.3457   0.6862 0017475 321.9511 161.1077 14.41648644657052
